ALOS-2                  
1 39766U 14029A   26199.25028623  .00000850  00000+0  12075-3 0  9992
2 39766  97.9232 295.9701 0001601  92.6508 267.4887 14.79472609656172
KAZEOSAT 2              
1 40010U 14033A   26199.28279860 -.00000368  00000+0 -36783-4 0  9994
2 40010  97.5390  37.2496 0007618 208.0905 151.9901 14.85499912653571
HODOYOSHI-4             
1 40011U 14033B   26199.30003465 -.00000148  00000+0 -10301-4 0  9998
2 40011  97.5458  22.6225 0022883 198.9784 161.0583 14.88190724653433
DEIMOS-2                
1 40013U 14033D   26199.26489001  .00001068  00000+0  10580-3 0  9997
2 40013  97.5779  72.6561 0001268 108.8525 251.2833 14.93800549642365
HODOYOSHI-3             
1 40015U 14033F   26199.17177905  .00000495  00000+0  63081-4 0  9994
2 40015  97.6449   0.9714 0031361 251.6548 108.1256 14.85440608652227
SPOT 7                  
1 40053U 14034A   26199.27532008  .00000037  00000+0  16837-4 0  9996
2 40053  98.0610 260.9637 0001603  95.4579 264.6805 14.60982077641679
SKYSAT-B                
1 40072U 14037D   26198.85478173  .00000585  00000+0  70239-4 0  9999
2 40072  98.3855 159.5727 0005780 164.7180 195.4211 14.88095356650526
WORLDVIEW-3 (WV-3)      
1 40115U 14048A   26199.22918889  .00000343  00000+0  46384-4 0  9990
2 40115  97.8555 273.6322 0001525 151.4596 208.6702 14.85066765646516
GAOFEN-2                
1 40118U 14049A   26199.32470287 -.00000143  00000+0 -11517-4 0  9990
2 40118  98.0092 263.4998 0008414 125.9697 234.2297 14.80927753643841
YAOGAN-21               
1 40143U 14053A   26199.29766804  .00001993  00000+0  78313-4 0  9991
2 40143  97.1453 238.2035 0007382 356.6798   3.4391 15.26782143659706
YAOGAN-22               
1 40275U 14063A   26199.06240831 -.00000024  00000+0  60488-4 0  9999
2 40275 100.7766 350.8536 0006899 119.1449 241.0354 13.15531630563874
ASNARO                  
1 40298U 14070A   26199.23947587  .00003682  00000+0  17704-3 0  9997
2 40298  97.3434 274.5187 0004726  80.7975 279.3795 15.19404119648728
YAOGAN-24               
1 40310U 14072A   26199.33107209 -.00000279  00000+0 -32637-4 0  9998
2 40310  98.1534 336.9346 0014848 159.8064 200.3735 14.76118353628311
CBERS 4                 
1 40336U 14079A   26199.33329600  .00000250  00000+0  10147-3 0  9992
2 40336  98.3511 255.1853 0000669  60.4780 299.6473 14.35517271608426
YAOGAN-26               
1 40362U 14088A   26199.29162716  .00013756  00000+0  26002-3 0  9991
2 40362  97.0651 198.7997 0001399 320.9987  39.1164 15.48525816642512
SMAP                    
1 40376U 15003A   26199.25922893  .00000170  00000+0  42024-4 0  9999
2 40376  98.1285 205.9149 0001620  94.2924 265.8463 14.63390565612166
KOMPSAT-3A              
1 40536U 15014A   26199.26329729  .00020129  00000+0  27556-3 0  9997
2 40536  97.6899 192.9359 0055891  64.8355 295.8680 15.55551551626645
SENTINEL-2A             
1 40697U 15028A   26199.33358472 -.00000029  00000+0  54540-5 0  9998
2 40697  98.5675 273.7415 0001289  95.7172 264.4158 14.30814734578182
GAOFEN-8                
1 40701U 15030A   26199.27491743  .00009467  00000+0  18906-3 0  9997
2 40701  97.6894  34.5346 0009886  86.1927 274.0453 15.47012771616256
CARBONITE 1 (CBNT-1)    
1 40718U 15032D   26199.27401634  .00000741  00000+0  95733-4 0  9997
2 40718  97.6522  16.0419 0014108 186.4460 173.6576 14.83673427593958
YAOGAN-27               
1 40878U 15040A   26199.27310098 -.00000298  00000+0 -67413-3 0  9998
2 40878 100.1172 184.3096 0008602 138.4470 221.7299 13.16070648521753
GAOFEN-9 01             
1 40894U 15047A   26199.30411200  .00000432  00000+0  59191-4 0  9997
2 40894  97.6263 233.5835 0028243  40.7038 319.6280 14.82938362584800
YAOGAN-28               
1 41026U 15064A   26199.30604209  .00003453  00000+0  12973-3 0  9999
2 41026  97.3116 336.9480 0012014  83.4948 276.7659 15.27782569595439
YAOGAN-29               
1 41038U 15069A   26199.28034010 -.00000316  00000+0 -32218-4 0  9993
2 41038  98.0014 227.9607 0000486   3.0935 357.0282 14.83106242575231
KENT RIDGE 1            
1 41167U 15077B   26199.20187301  .00002290  00000+0  62591-4 0  9997
2 41167  14.9806  35.2992 0008276 317.2142  42.7536 15.23293107585831
GAOFEN-4                
1 41194U 15083A   26199.00167800 -.00000343  00000+0  00000+0 0  9994
2 41194   0.4353  83.7758 0004245 125.5447 192.7916  1.00271294 38830
JASON-3                 
1 41240U 16002A   26199.30372570 -.00000041  00000+0  83908-4 0  9991
2 41240  66.0416  60.4167 0008151 270.6399  89.3686 12.87628786491257
SENTINEL-3A             
1 41335U 16011A   26199.28408401  .00000039  00000+0  34108-4 0  9990
2 41335  98.6235 266.2187 0001327  89.2817 270.8515 14.26740311542492
ZIYUAN 3-02 (ZY 3-02)   
1 41556U 16033A   26199.30077034  .00002791  00000+0  12697-3 0  9991
2 41556  97.3822 274.4772 0014419 174.1425 185.9982 15.21451889562717
CARTOSAT-2C             
1 41599U 16040A   26199.28019644  .00002831  00000+0  13733-3 0  9993
2 41599  97.4461 258.8275 0009345  35.8909 324.2952 15.19279413558437
