OBJECT_NAME,OBJECT_ID,EPOCH,MEAN_MOTION,ECCENTRICITY,INCLINATION,RA_OF_ASC_NODE,ARG_OF_PERICENTER,MEAN_ANOMALY,EPHEMERIS_TYPE,CLASSIFICATION_TYPE,NORAD_CAT_ID,ELEMENT_SET_NO,REV_AT_EPOCH,BSTAR,MEAN_MOTION_DOT,MEAN_MOTION_DDOT
ALOS-2,2014-029A,2026-07-18T06:00:24.730272,14.79472609,.00016016,97.9232,295.9701,92.6508,267.4887,0,U,39766,999,65617,.12074823E-3,.85E-5,0
KAZEOSAT 2,2014-033A,2026-07-18T06:47:13.799040,14.85499912,.00076182,97.5390,37.2496,208.0905,151.9901,0,U,40010,999,65357,-.36782749E-4,-.368E-5,0
HODOYOSHI-4,2014-033B,2026-07-18T07:12:02.993760,14.88190724,.00228831,97.5458,22.6225,198.9784,161.0583,0,U,40011,999,65343,-.10300766E-4,-.148E-5,0
DEIMOS-2,2014-033D,2026-07-18T06:21:26.496864,14.93800549,.00012681,97.5779,72.6561,108.8525,251.2833,0,U,40013,999,64236,.10580136E-3,.1068E-4,0
HODOYOSHI-3,2014-033F,2026-07-18T04:07:21.709920,14.85440608,.00313611,97.6449,0.9714,251.6548,108.1256,0,U,40015,999,65222,.63081032E-4,.495E-5,0
SPOT 7,2014-034A,2026-07-18T06:36:27.654912,14.60982077,.00016039,98.0610,260.9637,95.4579,264.6805,0,U,40053,999,64167,.16837453E-4,.37E-6,0
SKYSAT-B,2014-037D,2026-07-17T20:30:53.141472,14.88095356,.00057801,98.3855,159.5727,164.7180,195.4211,0,U,40072,999,65052,.70239127E-4,.585E-5,0
WORLDVIEW-3 (WV-3),2014-048A,2026-07-18T05:30:01.920096,14.85066765,.00015259,97.8555,273.6322,151.4596,208.6702,0,U,40115,999,64651,.46383832E-4,.343E-5,0
GAOFEN-2,2014-049A,2026-07-18T07:47:34.327968,14.80927753,.0008414,98.0092,263.4998,125.9697,234.2297,0,U,40118,999,64384,-.11516768E-4,-.143E-5,0
YAOGAN-21,2014-053A,2026-07-18T07:08:38.518656,15.26782143,.00073823,97.1453,238.2035,356.6798,3.4391,0,U,40143,999,65970,.78312684E-4,.1993E-4,0
YAOGAN-22,2014-063A,2026-07-18T01:29:52.077984,13.15531630,.00068992,100.7766,350.8536,119.1449,241.0354,0,U,40275,999,56387,.60487909E-4,-.24E-6,0
ASNARO,2014-070A,2026-07-18T05:44:50.715168,15.19404119,.00047263,97.3434,274.5187,80.7975,279.3795,0,U,40298,999,64872,.17703907E-3,.3682E-4,0
YAOGAN-24,2014-072A,2026-07-18T07:56:44.628576,14.76118353,.00148487,98.1534,336.9346,159.8064,200.3735,0,U,40310,999,62831,-.32636574E-4,-.279E-5,0
CBERS 4,2014-079A,2026-07-18T07:59:56.774400,14.35517271,.00006691,98.3511,255.1853,60.4780,299.6473,0,U,40336,999,60842,.10147295E-3,.25E-5,0
YAOGAN-26,2014-088A,2026-07-18T06:59:56.586624,15.48525816,.00013994,97.0651,198.7997,320.9987,39.1164,0,U,40362,999,64251,.26001531E-3,.13756E-3,0
SMAP,2015-003A,2026-07-18T06:13:17.379552,14.63390565,.00016208,98.1285,205.9149,94.2924,265.8463,0,U,40376,999,61216,.42024108E-4,.17E-5,0
KOMPSAT-3A,2015-014A,2026-07-18T06:19:08.885856,15.55551551,.00558911,97.6899,192.9359,64.8355,295.8680,0,U,40536,999,62664,.27555928E-3,.20129E-3,0
SENTINEL-2A,2015-028A,2026-07-18T08:00:21.719808,14.30814734,.00012898,98.5675,273.7415,95.7172,264.4158,0,U,40697,999,57818,.5453988E-5,-.29E-6,0
GAOFEN-8,2015-030A,2026-07-18T06:35:52.865952,15.47012771,.00098869,97.6894,34.5346,86.1927,274.0453,0,U,40701,999,61625,.18905664E-3,.9467E-4,0
CARBONITE 1 (CBNT-1),2015-032D,2026-07-18T06:34:35.011776,14.83673427,.00141088,97.6522,16.0419,186.4460,173.6576,0,U,40718,999,59395,.95732619E-4,.741E-5,0
YAOGAN-27,2015-040A,2026-07-18T06:33:15.924672,13.16070648,.00086027,100.1172,184.3096,138.4470,221.7299,0,U,40878,999,52175,-.67412666E-3,-.298E-5,0
GAOFEN-9 01,2015-047A,2026-07-18T07:17:55.276800,14.82938362,.00282433,97.6263,233.5835,40.7038,319.6280,0,U,40894,999,58480,.59190776E-4,.432E-5,0
YAOGAN-28,2015-064A,2026-07-18T07:20:42.036576,15.27782569,.00120148,97.3116,336.9480,83.4948,276.7659,0,U,41026,999,59543,.12973272E-3,.3453E-4,0
YAOGAN-29,2015-069A,2026-07-18T06:43:41.384640,14.83106242,.00004864,98.0014,227.9607,3.0935,357.0282,0,U,41038,999,57523,-.32218219E-4,-.316E-5,0
KENT RIDGE 1,2015-077B,2026-07-18T04:50:41.828064,15.23293107,.00082766,14.9806,35.2992,317.2142,42.7536,0,U,41167,999,58583,.62590516E-4,.229E-4,0
GAOFEN-4,2015-083A,2026-07-18T00:02:24.979200,1.00271294,.00042458,0.4353,83.7758,125.5447,192.7916,0,U,41194,999,3883,0,-.343E-5,0
JASON-3,2016-002A,2026-07-18T07:17:21.900480,12.87628786,.0008151,66.0416,60.4167,270.6399,89.3686,0,U,41240,999,49125,.83907723E-4,-.41E-6,0
SENTINEL-3A,2016-011A,2026-07-18T06:49:04.858464,14.26740311,.00013274,98.6235,266.2187,89.2817,270.8515,0,U,41335,999,54249,.34107547E-4,.39E-6,0
ZIYUAN 3-02 (ZY 3-02),2016-033A,2026-07-18T07:13:06.557376,15.21451889,.00144197,97.3822,274.4772,174.1425,185.9982,0,U,41556,999,56271,.12697387E-3,.2791E-4,0
CARTOSAT-2C,2016-040A,2026-07-18T06:43:28.972416,15.19279413,.00093455,97.4461,258.8275,35.8909,324.2952,0,U,41599,999,55843,.13733014E-3,.2831E-4,0
